KUIPER-00079            
1 64826U 25151L   25205.91668981  .00047861  00000+0  13595-2 0  9992
2 64826  51.8776 245.8924 0006221 162.9210 169.6510 15.35693943  1308
KUIPER-00080            
1 64827U 25151M   25205.91668981  .00044243  00000+0  12692-2 0  9991
2 64827  51.8780 245.9134 0005304 173.0505 150.5778 15.35424854  1464
KUIPER-00082            
1 64828U 25151N   25205.91668981  .00044250  00000+0  12653-2 0  9997
2 64828  51.8775 245.9017 0005792 169.0300 158.0538 15.35524193  1451
KUIPER-00083            
1 64829U 25151P   25205.91668981  .00042852  00000+0  12426-2 0  9992
2 64829  51.8769 245.9202 0005671 176.4261 140.9779 15.35099614  2515
KUIPER-00084            
1 64830U 25151Q   25205.91668981  .00042874  00000+0  12473-2 0  9990
2 64830  51.8777 245.9389 0006081 189.9670 120.2194 15.34995136  1302
KUIPER-00085            
1 64831U 25151R   25205.91668981  .00046881  00000+0  13333-2 0  9999
2 64831  51.8776 245.8942 0006101 163.4334 168.2115 15.35665756  2278
KUIPER-00086            
1 64832U 25151S   25205.91668981  .00042833  00000+0  12450-2 0  9992
2 64832  51.8771 245.9316 0006081 188.7198 123.9155 15.35023378  1308
KUIPER-00087            
1 64833U 25151T   25205.91668981  .00043772  00000+0  12571-2 0  9990
2 64833  51.8779 245.9064 0005689 165.9539 160.7678 15.35392586  2463
